PRODID,PRODDESC,PRICE1,PRICE2,UNITCOST,SUPPNAME,ADDRESS,CITY,STATE,ZIP,PRODTYPEID,TYPEDESC,BUID,BUSINESSNAME,ABBREV,SALEBY,DISCOUNTED
56,Allis Polishing Equipment,201.8,176.3,160.5,American General Ventures Incoporated.,Kimberly Yarborough; 1616 Goggles Drive           ,Sterling,KS,67579,3,Polishing Equipment    ,A        ,Processing Equipment,Equipment,TPCE,0
56,Allis Polishing Equipment,201.8,176.3,160.5,American General Ventures Incoporated.,Kimberly Yarborough; 1616 Goggles Drive           ,Sterling,KS,67579,3,Polishing Equipment    ,A        ,Processing Equipment,Equipment,TPCW,0
18,Allis Polishing Equipment,201.8,176.3,112,N/A,N/A                                               ,N/A,N/A,N/A,3,Polishing Equipment    ,A        ,Processing Equipment,Equipment,PEC,0
72,Anthem Tray Supplies,134.9,112.4,109,Fedders Corporation,Virgil Hubert; 7844 Carelessly Drive              ,Overlook,WA,98366,8,Tray Supplies          ,B        ,Disposable Supplies ,Supplies,TPCE,0
72,Anthem Tray Supplies,134.9,112.4,109,Fedders Corporation ,Virgil Hubert; 7844 Carelessly Drive              ,Overlook,Wa,98366,8,Tray Supplies          ,B        ,Disposable Supplies ,Supplies,TPCW,0
5,Automobiles Fillers,283.8,227.6,218.5,American General Ventures Incoporated.,Kimberly Yarborough; 1616 Goggles Drive           ,Sterling,KS,67579,12,Fillers                ,D        ,Miscellaneous       ,Misc,TPCE,0
5,Automobiles Fillers,283.8,227.6,218.5,American General Ventures Incoporated.,Kimberly Yarborough; 1616 Goggles Drive           ,Sterling,KS,67579,12,Fillers                ,D        ,Miscellaneous       ,Misc,TPCW,0
25,Automobiles Fillers,283.8,227.6,218.5,The Product Company (East),20021 Barnes Rd.                                  ,Stratford,NY,13470,12,Fillers                ,D        ,Miscellaneous       ,Misc,PEC,0
24,Bandage Manufacturing Equipment,298,267,253.7,Sinclair Broadcast Group Incoporated.,Carla Shelby; 6037 Ecuadorian Street              ,Clinton,MI,49236,2,Manufacturing Equip    ,A        ,Processing Equipment,Equipment,TPCE,0
24,Bandage Manufacturing Equipment,298,267,253.7,SIncoporated.,Carla Shelby; 6037 Ecuadorian Street              ,Clinton,MI,49236,2,Manufacturing Equip    ,A        ,Processing Equipment,Equipment,TPCW,0
7,Bandage Manufacturing Equipment,298,267,234,N/A,N/A                                               ,N/A,N/A,N/A,2,Manufacturing Equip    ,A        ,Processing Equipment,Equipment,PEC,0
98,Barrels Flushing Chemicals,135.1,116.6,108.4,Specialty Teleconstructors Incoporated.,Zylina Cox; 2161 Chalmers Street                  ,Salinas,CA,93905,10,Flushing Chemicals     ,C        ,Chemicals           ,Chemicals,TPCE,0
98,Barrels Flushing Chemicals,135.1,116.6,108.4,Specialty Teleconstructors Incoporated.,Zylina Cox; 2161 Chalmers Street                  ,Salinas,CA,93905,10,Flushing Chemicals     ,C        ,Chemicals           ,Chemicals,TPCW,0
92,Behind Tray Supplies,166.7,139,129.3,Afg Industries Incoporated.,Dorothy Polk; 5377 Cookbook Circle                ,Vero Beach,FL,32967,8,Tray Supplies          ,B        ,Disposable Supplies ,Supplies,TPCE,1
92,Behind Tray Supplies,166.7,139,129.3,Afg Industries Incoporated.,Dorothy Polk; 5377 Cookbook Circle                ,Vero Beach,FL,32967,8,Tray Supplies          ,B        ,Disposable Supplies ,Supplies,TPCW,0
94,Beliefs Freezing Chemicals,566.6,483.9,454.9,Immunex Corporation,Elbert Glad; 5841 Pervades Drive                  ,Fairfax,VA,22035,11,Freezing Chemicals     ,C        ,Chemicals           ,Chemicals,TPCE,0
94,Beliefs Freezing Chemicals,566.6,483.9,454.9,Immunex Corporation ,Elbert Glad; 5841 Pervades Drive                  ,Fairfax,VA,22035,11,Freezing Chemicals     ,C        ,Chemicals           ,Chemicals,TPCW,0
93,Bellowing Polishing Equipment,502.6,451.3,446.8,First Bancshares Incoporated.,Jensine Lease; 11885 Aural Turnpike               ,Louisville,KY,40253,3,Polishing Equipment    ,A        ,Processing Equipment,Equipment,TPCE,0
93,Bellowing Polishing Equipment,502.6,451.3,446.8,First Bancshares Incoporated.,Jensine Lease; 11885 Aural Turnpike               ,Louisville,KY,40253,3,Polishing Equipment    ,A        ,Processing Equipment,Equipment,TPCW,0
31,Bellowing Polishing Equipment,502.6,451.3,400,N/A,N/A                                               ,N/A,N/A,N/A,3,Polishing Equipment    ,A        ,Processing Equipment,Equipment,PEC,0
64,Berwick Fillers,583.9,487.5,463.1,Dollar General Corporation,Antoinette Hickey; 3988 Chanced Avenue            ,S Middleton,PA,17007,12,Fillers                ,D        ,Miscellaneous       ,Misc,TPCE,0
64,Berwick Fillers,583.9,487.5,463.1,Dollar General Corporation ,Antoinette Hickey; 3988 Chanced Avenue            ,S Middleton,Pa,17007,12,Fillers                ,D        ,Miscellaneous       ,Misc,TPCW,0
44,Birthdays Manufacturing Equipment,196.6,173.2,161.1,First Bancshares Incoporated.,Jensine Lease; 11885 Aural Turnpike               ,Louisville,KY,40253,2,Manufacturing Equip    ,A        ,Processing Equipment,Equipment,TPCE,0
44,Birthdays Manufacturing Equipment,196.6,173.2,161.1,First Bancshares Incoporated.,Jensine Lease; 11885 Aural Turnpike               ,Louisville,KY,40253,2,Manufacturing Equip    ,A        ,Processing Equipment,Equipment,TPCW,0
35,Birthdays Manufacturing Equipment,196.6,173.2,115,N/A,N/A                                               ,N/A,N/A,N/A,2,Manufacturing Equip    ,A        ,Processing Equipment,Equipment,PEC,0
43,Blazed Covers,495,416.8,404.3,Afg Industries Incoporated.,Dorothy Polk; 5377 Cookbook Circle                ,Vero Beach,FL,32967,13,Covers                 ,D        ,Miscellaneous       ,Misc,TPCE,0
43,Blazed Covers,495,416.8,404.3,Afg Industries Incoporated.,Dorothy Polk; 5377 Cookbook Circle                ,Vero Beach,FL,32967,13,Covers                 ,D        ,Miscellaneous       ,Misc,TPCW,0
29,Bluest Fillers,507.4,428.2,398.2,Black Hills Corporation,Edena Gilbert; 1618 Greenland Street              ,Tallahassee,FL,32304,12,Fillers                ,D        ,Miscellaneous       ,Misc,TPCE,0
29,Bluest Fillers,507.4,428.2,398.2,Black Hills Corporation ,Edena Gilbert; 1618 Greenland Street              ,Tallahassee,FL,32304,12,Fillers                ,D        ,Miscellaneous       ,Misc,TPCW,0
36,Bomber Photo Equipment,461.3,400.4,380.4,American General Ventures Incoporated.,Kimberly Yarborough; 1616 Goggles Drive           ,Sterling,KS,67579,1,Photo Equipment        ,A        ,Processing Equipment,Equipment,TPCE,0
36,Bomber Photo Equipment,461.3,400.4,380.4,American General Ventures Incoporated.,Kimberly Yarborough; 1616 Goggles Drive           ,Sterling,KS,67579,1,Photo Equipment        ,A        ,Processing Equipment,Equipment,TPCW,0
43,Bomber Photo Equipment,461.3,400.4,336,N/A,N/A                                               ,N/A,N/A,N/A,1,Photo Equipment        ,A        ,Processing Equipment,Equipment,PEC,0
55,Bumblers Plastic Supplies,545.3,466.2,447.6,First Bancshares Incoporated.,Jensine Lease; 11885 Aural Turnpike               ,Louisville,KY,40253,7,Plastic Supplies       ,B        ,Disposable Supplies ,Supplies,TPCE,1
55,Bumblers Plastic Supplies,545.3,466.2,447.6,First Bancshares Incoporated.,Jensine Lease; 11885 Aural Turnpike               ,Louisville,Ky,40253,7,Plastic Supplies       ,B        ,Disposable Supplies ,Supplies,TPCW,0
42,Carelessly Freezing Chemicals,559.7,467.9,425.8,Dollar General Corporation,Antoinette Hickey; 3988 Chanced Avenue            ,S Middleton,PA,17007,11,Freezing Chemicals     ,C        ,Chemicals           ,Chemicals,TPCE,0
42,Carelessly Freezing Chemicals,559.7,467.9,425.8,Dollar General Corporation ,Antoinette Hickey; 3988 Chanced Avenue            ,S Middleton,PA,17007,11,Freezing Chemicals     ,C        ,Chemicals           ,Chemicals,TPCW,0
25,Chalmers Polishing Equipment,289.2,242.6,223.2,American General Ventures Incoporated.,Kimberly Yarborough; 1616 Goggles Drive           ,Sterling,KS,67579,3,Polishing Equipment    ,A        ,Processing Equipment,Equipment,TPCE,0
25,Chalmers Polishing Equipment,289.2,242.6,223.2,American General Ventures Incoporated.,Kimberly Yarborough; 1616 Goggles Drive           ,Sterling,KS,67579,3,Polishing Equipment    ,A        ,Processing Equipment,Equipment,TPCW,0
8,Chalmers Polishing Equipment,289.2,242.6,215,N/A,N/A                                               ,N/A,N/A,N/A,3,Polishing Equipment    ,A        ,Processing Equipment,Equipment,PEC,0
58,Characterization Plastic Supplies,231.7,185.6,168.9,Fedders Corporation,Virgil Hubert; 7844 Carelessly Drive              ,Overlook,WA,98366,7,Plastic Supplies       ,B        ,Disposable Supplies ,Supplies,TPCE,0
58,Characterization Plastic Supplies,231.7,185.6,168.9,Fedders Corporation ,Virgil Hubert; 7844 Carelessly Drive              ,Overlook,WA,98366,7,Plastic Supplies       ,B        ,Disposable Supplies ,Supplies,TPCW,0
32,Chartable Photo Equipment,410.2,347.4,312.7,Black Hills Corporation,Edena Gilbert; 1618 Greenland Street              ,Tallahassee,FL,32304,1,Photo Equipment        ,A        ,Processing Equipment,Equipment,TPCE,0
32,Chartable Photo Equipment,410.2,347.4,312.7,Black Hills Corporation ,Edena Gilbert; 1618 Greenland Street              ,Tallahassee,FL,32304,1,Photo Equipment        ,A        ,Processing Equipment,Equipment,TPCW,0
10,Chartable Photo Equipment,410.2,347.4,295,N/A,N/A                                               ,N/A,N/A,N/A,9,Photo Chemicals        ,C        ,Chemicals           ,Chemicals,PEC,0
35,Chromium Photo Equipment,565.5,457.5,425.5,Fedders Corporation,Virgil Hubert; 7844 Carelessly Drive              ,Overlook,WA,98366,1,Photo Equipment        ,A        ,Processing Equipment,Equipment,TPCE,1
35,Chromium Photo Equipment,565.5,457.5,425.5,Fedders Corporation ,Virgil Hubert; 7844 Carelessly Drive              ,Overlook,WA,98366,1,Photo Equipment        ,A        ,Processing Equipment,Equipment,TPCW,0
12,Chromium Photo Equipment,565.5,457.5,326,N/A,N/A                                               ,N/A,N/A,N/A,1,Photo Equipment        ,A        ,Processing Equipment,Equipment,PEC,0
7,Commendation Fillers,436.3,380,364.8,Fedders Corporation,Virgil Hubert; 7844 Carelessly Drive              ,Overlook,WA,98366,12,Fillers                ,D        ,Miscellaneous       ,Misc,TPCE,0
7,Commendation Fillers,436.3,380,364.8,Fedders Corporation ,Virgil Hubert; 7844 Carelessly Drive              ,Overlook,WA,98366,12,Fillers                ,D        ,Miscellaneous       ,Misc,TPCW,0
38,Commendation Fillers,436.3,380,364.8,The Product Company (West),21 E Bullard Ave                                  ,Fresno,CA,93710,12,Fillers                ,D        ,Miscellaneous       ,Misc,PEC,0
37,Concentrators Polishing Equipment,584.6,524.9,482.9,Immunex Corporation,Elbert Glad; 5841 Pervades Drive                  ,Fairfax,VA,22035,3,Polishing Equipment    ,A        ,Processing Equipment,Equipment,TPCE,0
37,Concentrators Polishing Equipment,584.6,524.9,482.9,Immunex Corporation ,Elbert Glad; 5841 Pervades Drive                  ,Fairfax,VA,22035,3,Polishing Equipment    ,A        ,Processing Equipment,Equipment,TPCW,0
42,Concentrators Polishing Equipment,584.6,524.9,472,N/A,N/A                                               ,N/A,N/A,N/A,3,Polishing Equipment    ,A        ,Processing Equipment,Equipment,PEC,0
41,Consideration Tray Supplies,172.6,146.8,139.5,American General Ventures Incoporated.,Kimberly Yarborough; 1616 Goggles Drive           ,Sterling,KS,67579,8,Tray Supplies          ,B        ,Disposable Supplies ,Supplies,TPCE,0
41,Consideration Tray Supplies,172.6,146.8,139.5,American General Ventures Incoporated.,Kimberly Yarborough; 1616 Goggles Drive           ,Sterling,KS,67579,8,Tray Supplies          ,B        ,Disposable Supplies ,Supplies,TPCW,0
33,Consumable Tray Supplies,395.7,347.4,337,First Bancshares Incoporated.,Jensine Lease; 11885 Aural Turnpike               ,Louisville,KY,40253,8,Tray Supplies          ,B        ,Disposable Supplies ,Supplies,TPCE,0
33,Consumable Tray Supplies,395.7,347.4,337,First Bancshares Incoporated.,Jensine Lease; 11885 Aural Turnpike               ,Louisville,KY,40253,8,Tray Supplies          ,B        ,Disposable Supplies ,Supplies,TPCW,0
73,Cosgrove Jacks,298.9,267.8,254.4,Afg Industries Incoporated.,Dorothy Polk; 5377 Cookbook Circle                ,Vero Beach,FL,32967,15,Jacks                  ,D        ,Miscellaneous       ,Misc,TPCE,0
73,Cosgrove Jacks,298.9,267.8,254.4,Afg Industries Incoporated.,Dorothy Polk; 5377 Cookbook Circle                ,Vero Beach,FL,32967,15,Jacks                  ,D        ,Miscellaneous       ,Misc,TPCW,0
61,Courthouses Manufacturing Equipment,285.6,243.6,231.4,First Bancshares Incoporated.,Jensine Lease; 11885 Aural Turnpike               ,Louisville,KY,40253,2,Manufacturing Equip    ,A        ,Processing Equipment,Equipment,TPCE,0
61,Courthouses Manufacturing Equipment,285.6,243.6,231.4,First Bancshares Incoporated.,Jensine Lease; 11885 Aural Turnpike               ,Louisville,KY,40253,2,Manufacturing Equip    ,A        ,Processing Equipment,Equipment,TPCW,0
20,Courthouses Manufacturing Equipment,285.6,243.6,182,N/A,N/A                                               ,N/A,N/A,N/A,2,Manufacturing Equip    ,A        ,Processing Equipment,Equipment,PEC,0
13,Coward Covers,429.8,349,328.1,Fedders Corporation,Virgil Hubert; 7844 Carelessly Drive              ,Overlook,WA,98366,13,Covers                 ,D        ,Miscellaneous       ,Misc,TPCE,0
13,Coward Covers,429.8,349,328.1,Fedders Corporation ,Virgil Hubert; 7844 Carelessly Drive              ,Overlook,WA,98366,13,Covers                 ,D        ,Miscellaneous       ,Misc,TPCW,0
13,Coward Covers,429.8,349,328.1,The Product Company (East),20021 Barnes Rd.                                  ,Stratford,NY,13470,13,Covers                 ,D        ,Miscellaneous       ,Misc,PEC,0
90,Curiouser Cleaning Supplies,419.4,364.4,338.9,Dollar General Corporation,Antoinette Hickey; 3988 Chanced Avenue            ,S Middleton,PA,17007,5,Cleaning Supplies      ,B        ,Disposable Supplies ,Supplies,TPCE,0
90,Curiouser Cleaning Supplies,419.4,364.4,338.9,Dollar General Corporation ,Antoinette Hickey; 3988 Chanced Avenue            ,S Middleton,PA,17007,5,Cleaning Supplies      ,B        ,Disposable Supplies ,Supplies,TPCW,0
23,Decided Tray Supplies,233.3,202.3,198.2,Dollar General Corporation,Antoinette Hickey; 3988 Chanced Avenue            ,S Middleton,PA,17007,8,Tray Supplies          ,B        ,Disposable Supplies ,Supplies,TPCE,0
23,Decided Tray Supplies,233.3,202.3,198.2,Dollar General Corporation ,Antoinette Hickey; 3988 Chanced Avenue            ,S Middleton,PA,17007,8,Tray Supplies          ,B        ,Disposable Supplies ,Supplies,TPCW,0
10,Defeated Tray Supplies,559.7,476.9,448.3,American General Ventures Incoporated.,Kimberly Yarborough; 1616 Goggles Drive           ,Sterling,KS,67579,8,Tray Supplies          ,B        ,Disposable Supplies ,Supplies,TPCE,0
10,Defeated Tray Supplies,559.7,476.9,448.3,American General Ventures Incoporated.,Kimberly Yarborough; 1616 Goggles Drive           ,Sterling,KS,67579,8,Tray Supplies          ,B        ,Disposable Supplies ,Supplies,TPCW,0
9,Defeated Tray Supplies,559.7,476.9,448.3,The Product Company (West),21 E Bullard Ave                                  ,Fresno,CA,93710,8,Tray Supplies          ,B        ,Disposable Supplies ,Supplies,PEC,0
75,Deferrable Freezing Chemicals,145,124.4,113.2,Sinclair Broadcast Group Incoporated.,Carla Shelby; 6037 Ecuadorian Street              ,Clinton,MI,49236,11,Freezing Chemicals     ,C        ,Chemicals           ,Chemicals,TPCE,0
75,Deferrable Freezing Chemicals,145,124.4,113.2,SIncoporated.,Carla Shelby; 6027 Ecuadorian Street              ,Clinton,MI,49236,11,Freezing Chemicals     ,C        ,Chemicals           ,Chemicals,TPCW,0
21,Denigrating Polishing Equipment,566,454.5,427.2,First Bancshares Incoporated.,Jensine Lease; 11885 Aural Turnpike               ,Louisville,KY,40253,3,Polishing Equipment    ,A        ,Processing Equipment,Equipment,TPCE,0
21,Denigrating Polishing Equipment,566,454.5,427.2,First Bancshares Incoporated.,Jensine Lease; 11885 Aural Turnpike               ,Louisville,KY,40253,3,Polishing Equipment    ,A        ,Processing Equipment,Equipment,TPCW,0
6,Denigrating Polishing Equipment,566,454.5,402,N/A,N/A                                               ,N/A,N/A,N/A,3,Polishing Equipment    ,A        ,Processing Equipment,Equipment,PEC,0
30,Detectives Jacks,283.3,248.5,236.1,Specialty Teleconstructors Incoporated.,Zylina Cox; 2161 Chalmers Street                  ,Salinas,CA,93905,15,Jacks                  ,D        ,Miscellaneous       ,Misc,TPCE,0
30,Detectives Jacks,283.3,248.5,236.1,Specialty Teleconstructors Incoporated.,Zylina Cox; 2161 Chalmers Street                  ,Salinas,CA,93905,15,Jacks                  ,D        ,Miscellaneous       ,Misc,TPCW,0
85,Disallow Manufacturing Equipment,165.2,145.9,144.4,Dollar General Corporation,Antoinette Hickey; 3988 Chanced Avenue            ,S Middleton,PA,17007,2,Manufacturing Equip    ,A        ,Processing Equipment,Equipment,TPCE,0
85,Disallow Manufacturing Equipment,165.2,145.9,144.4,Dollar General Corporation ,Antoinette Hickey; 3988 Chanced Avenue            ,S Middleton,PA,17007,2,Manufacturing Equip    ,A        ,Processing Equipment,Equipment,TPCW,0
39,Disallow Manufacturing Equipment,165.2,145.9,97,N/A,N/A                                               ,N/A,N/A,N/A,2,Manufacturing Equip    ,A        ,Processing Equipment,Equipment,PEC,0
15,Disposed Fillers,158.8,138,132.5,Fedders Corporation,Virgil Hubert; 7844 Carelessly Drive              ,Overlook,WA,98366,12,Fillers                ,D        ,Miscellaneous       ,Misc,TPCE,0
15,Disposed Fillers,158.8,138,132.5,Fedders Corporation ,Virgil Hubert; 7844 Carelessly Drive              ,Overlook,WA,98366,12,Fillers                ,D        ,Miscellaneous       ,Misc,TPCW,0
46,Distantly Paper Supplies,518.5,436.1,418.6,First Bancshares Incoporated.,Jensine Lease; 11885 Aural Turnpike               ,Louisville,KY,40253,6,Paper Supplies         ,B        ,Disposable Supplies ,Supplies,TPCE,0
46,Distantly Paper Supplies,518.5,436.1,418.6,First Bancshares Incoporated.,Jensine Lease; 11885 Aural Turnpike               ,Louisville,KY,40253,6,Paper Supplies         ,B        ,Disposable Supplies ,Supplies,TPCW,0
96,Drafty Cleaning Supplies,107.1,92.7,89,Black Hills Corporation,Edena Gilbert; 1618 Greenland Street              ,Tallahassee,FL,32304,5,Cleaning Supplies      ,B        ,Disposable Supplies ,Supplies,TPCE,0
96,Drafty Cleaning Supplies,107.1,92.7,89,Black Hills Corporation ,Edena Gilbert; 1618 Greenland Street              ,Tallahassee,FL,32304,5,Cleaning Supplies      ,B        ,Disposable Supplies ,Supplies,TPCW,0
95,Duplicator Polishing Equipment,544.3,465.4,432.8,Afg Industries Incoporated.,Dorothy Polk; 5377 Cookbook Circle                ,Vero Beach,FL,32967,3,Polishing Equipment    ,A        ,Processing Equipment,Equipment,TPCE,0
95,Duplicator Polishing Equipment,544.3,465.4,432.8,Afg Industries Incoporated.,Dorothy Polk; 5377 Cookbook Circle                ,Vero Beach,FL,32967,3,Polishing Equipment    ,A        ,Processing Equipment,Equipment,TPCW,0
36,Duplicator Polishing Equipment,544.3,465.4,409,N/A,N/A                                               ,N/A,N/A,N/A,3,Polishing Equipment    ,A        ,Processing Equipment,Equipment,PEC,0
4,Embodying Cleaning Supplies,250.9,213.5,207.1,Immunex Corporation,Elbert Glad; 5841 Pervades Drive                  ,Fairfax,VA,22035,5,Cleaning Supplies      ,B        ,Disposable Supplies ,Supplies,TPCE,0
4,Embodying Cleaning Supplies,250.9,213.5,207.1,Immunex Corporation ,Elbert Glad; 5841 Pervades Drive                  ,Fairfax,VA,22035,5,Cleaning Supplies      ,B        ,Disposable Supplies ,Supplies,TPCW,0
32,Embodying Cleaning Supplies,250.9,213.5,207.1,The Product Company (West),21 E Bullard Ave                                  ,Fresno,CA,93710,5,Cleaning Supplies      ,B        ,Disposable Supplies ,Supplies,PEC,0
14,Engle Photo Chemicals,429.9,346.1,342.6,Black Hills Corporation,Edena Gilbert; 1618 Greenland Street              ,Tallahassee,FL,32304,9,Photo Chemicals        ,C        ,Chemicals           ,Chemicals,TPCE,0
14,Engle Photo Chemicals,429.9,346.1,342.6,Black Hills Corporation ,Edena Gilbert; 1618 Greenland Street              ,Tallahassee,FL,32304,9,Photo Chemicals        ,C        ,Chemicals           ,Chemicals,TPCW,0
16,Enhanced Covers,461,384.4,361.4,Dollar General Corporation,Antoinette Hickey; 3988 Chanced Avenue            ,S Middleton,PA,17007,13,Covers                 ,D        ,Miscellaneous       ,Misc,TPCE,0
16,Enhanced Covers,461,384.4,361.4,Dollar General Corporation ,Antoinette Hickey; 3988 Chanced Avenue            ,S Middleton,PA,17007,13,Covers                 ,D        ,Miscellaneous       ,Misc,TPCW,0
1,Enumerator Polishing Equipment,165,142.5,135.4,American General Ventures Incoporated.,Kimberly Yarborough; 1616 Goggles Drive           ,Sterling,KS,67579,3,Polishing Equipment    ,A        ,Processing Equipment,Equipment,TPCE,0
1,Enumerator Polishing Equipment,165,142.5,135.4,American General Ventures Incoporated.,Kimberly Yarborough; 1616 Goggles Drive           ,Sterling,KS,67579,3,Polishing Equipment    ,A        ,Processing Equipment,Equipment,TPCW,0
1,Enumerator Polishing Equipment,165,142.5,120,N/A,N/A                                               ,N/A,N/A,N/A,3,Polishing Equipment    ,A        ,Processing Equipment,Equipment,PEC,0
70,Escape Manufacturing Equipment,584.4,523.6,507.9,Black Hills Corporation,Edena Gilbert; 1618 Greenland Street              ,Tallahassee,FL,32304,2,Manufacturing Equip    ,A        ,Processing Equipment,Equipment,TPCE,0
70,Escape Manufacturing Equipment,584.4,523.6,507.9,Black Hills Corporation ,Edena Gilbert; 1618 Greenland Street              ,Tallahassee,FL,32304,2,Manufacturing Equip    ,A        ,Processing Equipment,Equipment,TPCW,0
37,Escape Manufacturing Equipment,584.4,523.6,463,N/A,N/A                                               ,N/A,N/A,N/A,2,Manufacturing Equip    ,A        ,Processing Equipment,Equipment,PEC,0
66,Exemplar Freezing Chemicals,198.4,160.9,152.8,Fedders Corporation,Virgil Hubert; 7844 Carelessly Drive              ,Overlook,WA,98366,11,Freezing Chemicals     ,C        ,Chemicals           ,Chemicals,TPCE,0
66,Exemplar Freezing Chemicals,198.4,160.9,152.8,Fedders Corporation ,Virgil Hubert; 7844 Carelessly Drive              ,Overlook,WA,98366,11,Freezing Chemicals     ,C        ,Chemicals           ,Chemicals,TPCW,0
65,Extinguisher Manufacturing Equipment,120.4,98.4,90.5,Sinclair Broadcast Group Incoporated.,Carla Shelby; 6037 Ecuadorian Street              ,Clinton,MI,49236,2,Manufacturing Equip    ,A        ,Processing Equipment,Equipment,TPCE,0
65,Extinguisher Manufacturing Equipment,120.4,98.4,90.5,SIncoporated.,Carla Shelby; 6037 Ecuadorian Street              ,Clinton,MI,49236,2,Manufacturing Equip    ,A        ,Processing Equipment,Equipment,TPCW,0
22,Extinguisher Manufacturing Equipment,120.4,98.4,65,N/A,N/A                                               ,N/A,N/A,N/A,2,Manufacturing Equip    ,A        ,Processing Equipment,Equipment,PEC,0
20,Flake Photo Equipment,232.3,204.4,194.2,Sinclair Broadcast Group Incoporated.,Carla Shelby; 6037 Ecuadorian Street              ,Clinton,MI,49236,1,Photo Equipment        ,A        ,Processing Equipment,Equipment,TPCE,0
20,Flake Photo Equipment,232.3,204.4,194.2,SIncoporated.,Carla Shelby; 6037 Ecuadorian Street              ,Clinton,MI,49236,1,Photo Equipment        ,A        ,Processing Equipment,Equipment,TPCW,0
5,Flake Photo Equipment,232.3,204.4,170,N/A,N/A                                               ,N/A,N/A,N/A,1,Photo Equipment        ,A        ,Processing Equipment,Equipment,PEC,0
74,Flanker Fillers,271.4,236.2,219.6,Dollar General Corporation,Antoinette Hickey; 3988 Chanced Avenue            ,S Middleton,PA,17007,12,Fillers                ,D        ,Miscellaneous       ,Misc,TPCE,0
74,Flanker Fillers,271.4,236.2,219.6,Dollar General Corporation ,Antoinette Hickey; 3988 Chanced Avenue            ,S Middleton,PA,17007,12,Fillers                ,D        ,Miscellaneous       ,Misc,TPCW,0
60,Habitually Manufacturing Equipment,509.3,419.1,394,Black Hills Corporation,Edena Gilbert; 1618 Greenland Street              ,Tallahassee,FL,32304,2,Manufacturing Equip    ,A        ,Processing Equipment,Equipment,TPCE,0
60,Habitually Manufacturing Equipment,509.3,419.1,394,Black Hills Corporation ,Edena Gilbert; 1618 Greenland Street              ,Tallahassee,FL,32304,2,Manufacturing Equip    ,A        ,Processing Equipment,Equipment,TPCW,0
19,Habitually Manufacturing Equipment,509.3,419.1,354,N/A,N/A                                               ,N/A,N/A,N/A,2,Manufacturing Equip    ,A        ,Processing Equipment,Equipment,PEC,0
19,Hesitating Jacks,124.5,100.1,96.1,First Bancshares Incoporated.,Jensine Lease; 11885 Aural Turnpike               ,Louisville,KY,40253,15,Jacks                  ,D        ,Miscellaneous       ,Misc,TPCE,0
19,Hesitating Jacks,124.5,100.1,96.1,First Bancshares Incoporated.,Jensine Lease; 11885 Aural Turnpike               ,Louisville,KY,40253,15,Jacks                  ,D        ,Miscellaneous       ,Misc,TPCW,0
69,Hits Tray Supplies,439.5,359.1,341.1,Black Hills Corporation,Edena Gilbert; 1618 Greenland Street              ,Tallahassee,FL,32304,8,Tray Supplies          ,B        ,Disposable Supplies ,Supplies,TPCE,0
69,Hits Tray Supplies,439.5,359.1,341.1,Black Hills Corporation ,Edena Gilbert; 1618 Greenland Street              ,Tallahassee,FL,32304,8,Tray Supplies          ,B        ,Disposable Supplies ,Supplies,TPCW,0
54,Honeymoon Photo Chemicals,326.1,292.2,271.8,Afg Industries Incoporated.,Dorothy Polk; 5377 Cookbook Circle                ,Vero Beach,FL,32967,9,Photo Chemicals        ,C        ,Chemicals           ,Chemicals,TPCE,0
54,Honeymoon Photo Chemicals,326.1,292.2,271.8,Afg Industries Incoporated.,Dorothy Polk; 5377 Cookbook Circle                ,Vero Beach,FL,32967,9,Photo Chemicals        ,C        ,Chemicals           ,Chemicals,TPCW,0
83,Horses Lifts,487.3,402.5,366.3,Saurer Gruppe Holding Ag,Pearce Valdez; 3727 Elms Drive                    ,South Saint Paul,MN,55077,14,Lifts                  ,D        ,Miscellaneous       ,Misc,TPCE,0
83,Horses Lifts,487.3,402.5,366.3,Saurer Gruppe Holding Ag,Pearce Valdez; 3727 Elms Drive                    ,South Saint Paul,MN,55077,14,Lifts                  ,D        ,Miscellaneous       ,Misc,TPCW,0
52,Identical Freezing Chemicals,578.1,465.9,447.3,Sinclair Broadcast Group Incoporated.,Carla Shelby; 6037 Ecuadorian Street              ,Clinton,MI,49236,11,Freezing Chemicals     ,C        ,Chemicals           ,Chemicals,TPCE,0
52,Identical Freezing Chemicals,578.1,465.9,447.3,SIncoporated.,Carla Shelby; 6037 Ecuadorian Street              ,Clinton,MI,49236,11,Freezing Chemicals     ,C        ,Chemicals           ,Chemicals,TPCW,0
40,Insensitivity Manufacturing Equipment,200.7,180.4,169.6,First Bancshares Incoporated.,Jensine Lease; 11885 Aural Turnpike               ,Louisville,KY,40253,2,Manufacturing Equip    ,A        ,Processing Equipment,Equipment,TPCE,0
40,Insensitivity Manufacturing Equipment,200.7,180.4,169.6,First Bancshares Incoporated.,Jensine Lease; 11885 Aural Turnpike               ,Louisville,KY,40253,2,Manufacturing Equip    ,A        ,Processing Equipment,Equipment,TPCW,0
16,Insensitivity Manufacturing Equipment,200.7,180.4,117,N/A,N/A                                               ,N/A,N/A,N/A,2,Manufacturing Equip    ,A        ,Processing Equipment,Equipment,PEC,0
105,Just Paper Supplies,278.6,201.3,192.7,Afg Industries Incoporated.,Dorothy Polk; 5377 Cookbook Circle                ,Vero Beach,FL,32967,6,Paper Supplies         ,B        ,Disposable Supplies ,Supplies,TPCW,0
104,LCARS Covers,289.4,231.4,211.8,Fedders Corporation ,Virgil Hubert; 7844 Carelessly Drive              ,Overlook,WA,98366,13,Covers                 ,D        ,Miscellaneous       ,Misc,TPCW,0
68,Loaves Polishing Equipment,425.6,361.3,354.1,Afg Industries Incoporated.,Dorothy Polk; 5377 Cookbook Circle                ,Vero Beach,FL,32967,3,Polishing Equipment    ,A        ,Processing Equipment,Equipment,TPCE,0
68,Loaves Polishing Equipment,425.6,361.3,354.1,Afg Industries Incoporated.,Dorothy Polk; 5377 Cookbook Circle                ,Vero Beach,FL,32967,3,Polishing Equipment    ,A        ,Processing Equipment,Equipment,TPCW,0
24,Loaves Polishing Equipment,425.6,361.3,241,N/A,N/A                                               ,N/A,N/A,N/A,3,Polishing Equipment    ,A        ,Processing Equipment,Equipment,PEC,0
78,Measured Photo Chemicals,318.1,270.7,254.4,Immunex Corporation,Elbert Glad; 5841 Pervades Drive                  ,Fairfax,VA,22035,9,Photo Chemicals        ,C        ,Chemicals           ,Chemicals,TPCE,0
78,Measured Photo Chemicals,318.1,270.7,254.4,Immunex Corporation ,Elbert Glad; 5841 Pervades Drive                  ,Fairfax,Va,22035,9,Photo Chemicals        ,C        ,Chemicals           ,Chemicals,TPCW,0
102,Measured Photo Chemicals,318.1,270.7,254.4,Immunex Corporation ,Elbert Glad; 5841 Pervades Drive                  ,Fairfax,VA,22035,9,Photo Chemicals        ,C        ,Chemicals           ,Chemicals,TPCW,0
9,Millimeters Flushing Chemicals,295.6,251.8,241.8,Afg Industries Incoporated.,Dorothy Polk; 5377 Cookbook Circle                ,Vero Beach,FL,32967,10,Flushing Chemicals     ,C        ,Chemicals           ,Chemicals,TPCE,0
9,Millimeters Flushing Chemicals,295.6,251.8,241.8,Afg Industries Incoporated.,Dorothy Polk; 5377 Cookbook Circle                ,Vero Beach,FL,32967,10,Flushing Chemicals     ,C        ,Chemicals           ,Chemicals,TPCW,0
29,Millimeters Flushing Chemicals,295.6,251.8,241.8,The Product Company (East),20021 Barnes Rd.                                  ,Stratford,NY,13470,10,Flushing Chemicals     ,C        ,Chemicals           ,Chemicals,PEC,0
18,Miniaturizing Manufacturing Equipment,456.2,379.6,353,American General Ventures Incoporated.,Kimberly Yarborough; 1616 Goggles Drive           ,Sterling,KS,67579,2,Manufacturing Equip    ,A        ,Processing Equipment,Equipment,TPCE,0
18,Miniaturizing Manufacturing Equipment,456.2,379.6,353,American General Ventures Incoporated.,Kimberly Yarborough; 1616 Goggles Drive           ,Sterling,KS,67579,2,Manufacturing Equip    ,A        ,Processing Equipment,Equipment,TPCW,0
4,Miniaturizing Manufacturing Equipment,456.2,379.6,325,N/A,N/A                                               ,N/A,N/A,N/A,2,Manufacturing Equip    ,A        ,Processing Equipment,Equipment,PEC,0
82,Numerals Covers,102.9,89,83.6,Sinclair Broadcast Group Incoporated.,Carla Shelby; 6037 Ecuadorian Street              ,Clinton,MI,49236,13,Covers                 ,D        ,Miscellaneous       ,Misc,TPCE,0
82,Numerals Covers,102.9,89,83.6,SIncoporated.,Carla Shelby; 6037 Ecuadorian Street              ,Clinton,Mi,49236,13,Covers                 ,D        ,Miscellaneous       ,Misc,TPCW,0
67,Occlusion Manufacturing Equipment,199.9,177.3,164.9,Afg Industries Incoporated.,Dorothy Polk; 5377 Cookbook Circle                ,Vero Beach,FL,32967,2,Manufacturing Equip    ,A        ,Processing Equipment,Equipment,TPCE,0
67,Occlusion Manufacturing Equipment,199.9,177.3,164.9,Afg Industries Incoporated.,Dorothy Polk; 5377 Cookbook Circle                ,Vero Beach,Fl,32967,2,Manufacturing Equip    ,A        ,Processing Equipment,Equipment,TPCW,0
23,Occlusion Manufacturing Equipment,199.9,177.3,72,N/A,N/A                                               ,N/A,N/A,N/A,2,Manufacturing Equip    ,A        ,Processing Equipment,Equipment,PEC,0
17,Optima Cleaning Supplies,288.4,255.5,242.8,American General Ventures Incoporated.,Kimberly Yarborough; 1616 Goggles Drive           ,Sterling,KS,67579,5,Cleaning Supplies      ,B        ,Disposable Supplies ,Supplies,TPCE,0
17,Optima Cleaning Supplies,288.4,255.5,242.8,American General Ventures Incoporated.,Kimberly Yarborough; 1616 Goggles Drive           ,Sterling,KS,67579,5,Cleaning Supplies      ,B        ,Disposable Supplies ,Supplies,TPCW,0
39,Overlays Plastic Supplies,301.1,254.4,241.7,Afg Industries Incoporated.,Dorothy Polk; 5377 Cookbook Circle                ,Vero Beach,FL,32967,7,Plastic Supplies       ,B        ,Disposable Supplies ,Supplies,TPCE,0
39,Overlays Plastic Supplies,301.1,254.4,241.7,Afg Industries Incoporated.,Dorothy Polk; 5377 Cookbook Circle                ,Vero Beach,FL,32967,7,Plastic Supplies       ,B        ,Disposable Supplies ,Supplies,TPCW,0
81,Palm Polishing Equipment,122.4,105.4,103.3,Black Hills Corporation,Edena Gilbert; 1618 Greenland Street              ,Tallahassee,FL,32304,3,Polishing Equipment    ,A        ,Processing Equipment,Equipment,TPCE,0
81,Palm Polishing Equipment,122.4,105.4,103.3,Black Hills Corporation ,Edena Gilbert; 1618 Greenland Street              ,Tallahassee,FL,32304,3,Polishing Equipment    ,A        ,Processing Equipment,Equipment,TPCW,0
28,Palm Polishing Equipment,122.4,105.4,87,N/A,N/A                                               ,N/A,N/A,N/A,3,Polishing Equipment    ,A        ,Processing Equipment,Equipment,PEC,0
48,Patriarchal Cleaning Supplies,351.5,284.8,264.8,Sinclair Broadcast Group Incoporated.,Carla Shelby; 6037 Ecuadorian Street              ,Clinton,MI,49236,5,Cleaning Supplies      ,B        ,Disposable Supplies ,Supplies,TPCE,0
48,Patriarchal Cleaning Supplies,351.5,284.8,264.8,SIncoporated.,Carla Shelby; 6037 Ecuadorian Street              ,Clinton,MI,49236,5,Cleaning Supplies      ,B        ,Disposable Supplies ,Supplies,TPCW,0
100,Pervasively Manufacturing Equipment,374.1,334.9,308.1,American General Ventures Incoporated.,Kimberly Yarborough; 1616 Goggles Drive           ,Sterling,KS,67579,2,Manufacturing Equip    ,A        ,Processing Equipment,Equipment,TPCE,0
100,Pervasively Manufacturing Equipment,374.1,334.9,308.1,American General Ventures Incoporated.,Kimberly Yarborough; 1616 Goggles Drive           ,Sterling,KS,67579,2,Manufacturing Equip    ,A        ,Processing Equipment,Equipment,TPCW,0
33,Pervasively Manufacturing Equipment,374.1,334.9,303,N/A,N/A                                               ,N/A,N/A,N/A,2,Manufacturing Equip    ,A        ,Processing Equipment,Equipment,PEC,0
27,Pinnings Plastic Supplies,337.2,302.4,287.3,Saurer Gruppe Holding Ag,Pearce Valdez; 3727 Elms Drive                    ,South Saint Paul,MN,55077,7,Plastic Supplies       ,B        ,Disposable Supplies ,Supplies,TPCE,0
27,Pinnings Plastic Supplies,337.2,302.4,287.3,Saurer Gruppe Holding Ag,Pearce Valdez; 3727 Elms Drive                    ,South Saint Paul,MN,55077,7,Plastic Supplies       ,B        ,Disposable Supplies ,Supplies,TPCW,0
6,Planetesimal Manufacturing Equipment,347.3,307,285.5,First Bancshares Incoporated.,Jensine Lease; 11885 Aural Turnpike               ,Louisville,KY,40253,2,Manufacturing Equip    ,A        ,Processing Equipment,Equipment,TPCE,0
6,Planetesimal Manufacturing Equipment,347.3,307,285.5,First Bancshares Incoporated.,Jensine Lease; 11885 Aural Turnpike               ,Louisville,KY,40253,2,Manufacturing Equip    ,A        ,Processing Equipment,Equipment,TPCW,0
2,Planetesimal Manufacturing Equipment,347.3,307,250,N/A,N/A                                               ,N/A,N/A,N/A,2,Manufacturing Equip    ,A        ,Processing Equipment,Equipment,PEC,0
51,Reflection Lifts,497.9,447.6,438.6,Fedders Corporation,Virgil Hubert; 7844 Carelessly Drive              ,Overlook,WA,98366,14,Lifts                  ,D        ,Miscellaneous       ,Misc,TPCE,0
51,Reflection Lifts,497.9,447.6,438.6,Fedders Corporation ,Virgil Hubert; 7844 Carelessly Drive              ,Overlook,WA,98366,14,Lifts                  ,D        ,Miscellaneous       ,Misc,TPCW,0
50,Restarts Paper Supplies,524.4,448.3,425.9,Specialty Teleconstructors Incoporated.,Zylina Cox; 2161 Chalmers Street                  ,Salinas,CA,93905,6,Paper Supplies         ,B        ,Disposable Supplies ,Supplies,TPCE,0
50,Restarts Paper Supplies,524.4,448.3,425.9,Specialty Teleconstructors Incoporated.,Zylina Cox; 2161 Chalmers Street                  ,Salinas,CA,93905,6,Paper Supplies         ,B        ,Disposable Supplies ,Supplies,TPCW,0
99,Richards Freezing Chemicals,529.4,475.4,470.6,Dollar General Corporation,Antoinette Hickey; 3988 Chanced Avenue            ,S Middleton,PA,17007,11,Freezing Chemicals     ,C        ,Chemicals           ,Chemicals,TPCE,1
99,Richards Freezing Chemicals,529.4,475.4,470.6,Dollar General Corporation ,Antoinette Hickey; 3988 Chanced Avenue            ,S Middleton,Pa,17007,11,Freezing Chemicals     ,C        ,Chemicals           ,Chemicals,TPCW,0
53,Ruffle Freezing Chemicals,476.4,394.9,379.1,Immunex Corporation,Elbert Glad; 5841 Pervades Drive                  ,Fairfax,VA,22035,11,Freezing Chemicals     ,C        ,Chemicals           ,Chemicals,TPCE,0
53,Ruffle Freezing Chemicals,476.4,394.9,379.1,Immunex Corporation ,Elbert Glad; 5841 Pervades Drive                  ,Fairfax,VA,22035,11,Freezing Chemicals     ,C        ,Chemicals           ,Chemicals,TPCW,0
34,Sailors Manufacturing Equipment,340.5,290.4,278.8,Dollar General Corporation,Antoinette Hickey; 3988 Chanced Avenue            ,S Middleton,PA,17007,2,Manufacturing Equip    ,A        ,Processing Equipment,Equipment,TPCE,0
34,Sailors Manufacturing Equipment,340.5,290.4,278.8,Dollar General Corporation ,Antoinette Hickey; 3988 Chanced Avenue            ,S Middleton,PA,17007,2,Manufacturing Equip    ,A        ,Processing Equipment,Equipment,TPCW,0
11,Sailors Manufacturing Equipment,340.5,290.4,235,N/A,N/A                                               ,N/A,N/A,N/A,2,Manufacturing Equip    ,A        ,Processing Equipment,Equipment,PEC,0
91,Scribble Plastic Supplies,492.4,405.7,397.6,Specialty Teleconstructors Incoporated.,Zylina Cox; 2161 Chalmers Street                  ,Salinas,CA,93905,7,Plastic Supplies       ,B        ,Disposable Supplies ,Supplies,TPCE,0
91,Scribble Plastic Supplies,492.4,405.7,397.6,Specialty Teleconstructors Incoporated.,Zylina Cox; 2161 Chalmers Street                  ,Salinas,CA,93905,7,Plastic Supplies       ,B        ,Disposable Supplies ,Supplies,TPCW,0
76,Scrounge Jacks,301.6,251.2,248.7,Dollar General Corporation,Antoinette Hickey; 3988 Chanced Avenue            ,S Middleton,PA,17007,15,Jacks                  ,D        ,Miscellaneous       ,Misc,TPCE,0
76,Scrounge Jacks,301.6,251.2,248.7,Dollar General Corporation ,Antoinette Hickey; 3988 Chanced Avenue            ,S Middleton,PA,17007,15,Jacks                  ,D        ,Miscellaneous       ,Misc,TPCW,0
8,Septembers Manufacturing Equipment,584.3,523,517.8,Fedders Corporation,Virgil Hubert; 7844 Carelessly Drive              ,Overlook,WA,98366,2,Manufacturing Equip    ,A        ,Processing Equipment,Equipment,TPCE,0
8,Septembers Manufacturing Equipment,584.3,523,517.8,Fedders Corporation ,Virgil Hubert; 7844 Careless Drive                ,Overlook,WA,98366,2,Manufacturing Equip    ,A        ,Processing Equipment,Equipment,TPCW,0
34,Septembers Manufacturing Equipment,584.3,523,217,N/A,N/A                                               ,N/A,N/A,N/A,2,Manufacturing Equip    ,A        ,Processing Equipment,Equipment,PEC,0
79,Siena Plastic Supplies,155,136.4,132.3,Black Hills Corporation,Edena Gilbert; 1618 Greenland Street              ,Tallahassee,FL,32304,7,Plastic Supplies       ,B        ,Disposable Supplies ,Supplies,TPCE,0
79,Siena Plastic Supplies,155,136.4,132.3,Black Hills Corporation ,Edena Gilbert; 1618 Greenland Street              ,Tallahassee,FL,32304,7,Plastic Supplies       ,B        ,Disposable Supplies ,Supplies,TPCW,0
47,Significants Freezing Chemicals,141.6,113.2,104.2,Dollar General Corporation,Antoinette Hickey; 3988 Chanced Avenue            ,S Middleton,PA,17007,11,Freezing Chemicals     ,C        ,Chemicals           ,Chemicals,TPCE,0
47,Significants Freezing Chemicals,141.6,113.2,104.2,Dollar General Corporation ,Antoinette Hickey; 3988 Chanced Avenue            ,S Middleton,PA,17007,11,Freezing Chemicals     ,C        ,Chemicals           ,Chemicals,TPCW,0
31,Simplifier Tray Supplies,408.8,349.1,328.2,Saurer Gruppe Holding Ag,Pearce Valdez; 3727 Elms Drive                    ,South Saint Paul,MN,55077,8,Tray Supplies          ,B        ,Disposable Supplies ,Supplies,TPCE,0
31,Simplifier Tray Supplies,408.8,349.1,328.2,Saurer Gruppe Holding Ag,Pearce Valdez; 3727 Elms Drive                    ,South Saint Paul,MN,55077,8,Tray Supplies          ,B        ,Disposable Supplies ,Supplies,TPCW,0
71,Simulations Photo Equipment,318.4,255.7,245.4,Black Hills Corporation,Edena Gilbert; 1618 Greenland Street              ,Tallahassee,FL,32304,1,Photo Equipment        ,A        ,Processing Equipment,Equipment,TPCE,0
71,Simulations Photo Equipment,318.4,255.7,245.4,Black Hills Corporation ,Edena Gilbert; 1618 Greenland Street              ,Tallahassee,FL,32304,1,Photo Equipment        ,A        ,Processing Equipment,Equipment,TPCW,0
26,Simulations Photo Equipment,318.4,255.7,193,N/A,N/A                                               ,N/A,N/A,N/A,1,Photo Equipment        ,A        ,Processing Equipment,Equipment,PEC,0
45,Slacking Jacks,495,400,388,Dollar General Corporation,Antoinette Hickey; 3988 Chanced Avenue            ,S Middleton,PA,17007,15,Jacks                  ,D        ,Miscellaneous       ,Misc,TPCE,0
45,Slacking Jacks,495,400,388,Dollar General Corporation ,Antoinette Hickey; 3988 Chanced Avenue            ,S Middleton,PA,17007,15,Jacks                  ,D        ,Miscellaneous       ,Misc,TPCW,0
3,Sortie Covers,248.2,213.2,206.8,Fedders Corporation,Virgil Hubert; 7844 Carelessly Drive              ,Overlook,WA,98366,13,Covers                 ,D        ,Miscellaneous       ,Misc,TPCE,0
3,Sortie Covers,248.2,213.2,206.8,Fedders Corporation ,Virgil Hubert; 7844 Carelessly Drive              ,Overlook,WA,98366,13,Covers                 ,D        ,Miscellaneous       ,Misc,TPCW,0
17,Sortie Covers,248.2,213.2,206.8,The Product Company (East),20021 Barnes Rd.                                  ,Stratford,NY,13470,13,Covers                 ,D        ,Miscellaneous       ,Misc,PEC,0
57,South Tray Supplies,241.3,205.1,203.1,Sinclair Broadcast Group Incoporated.,Carla Shelby; 6037 Ecuadorian Street              ,Clinton,MI,49236,8,Tray Supplies          ,B        ,Disposable Supplies ,Supplies,TPCE,0
57,South Tray Supplies,241.3,205.1,203.1,SIncoporated.,Carla Shelby; 6037 Ecuadorian Street              ,Clinton,MI,49236,8,Tray Supplies          ,B        ,Disposable Supplies ,Supplies,TPCW,0
86,Soya Cleaning Supplies,406.9,345.9,345.9,Specialty Teleconstructors Incoporated.,Zylina Cox; 2161 Chalmers Street                  ,Salinas,CA,93905,5,Cleaning Supplies      ,B        ,Disposable Supplies ,Supplies,TPCE,0
86,Soya Cleaning Supplies,406.9,345.9,345.9,Specialty Teleconstructors Incoporated.,Zylina Cox; 2161 Chalmers Street                  ,Salinas,CA,93905,5,Cleaning Supplies      ,B        ,Disposable Supplies ,Supplies,TPCW,0
97,Stickiest Paper Supplies,575.9,502.8,467.6,Black Hills Corporation,Edena Gilbert; 1618 Greenland Street              ,Tallahassee,FL,32304,6,Paper Supplies         ,B        ,Disposable Supplies ,Supplies,TPCE,0
97,Stickiest Paper Supplies,575.9,502.8,467.6,Black Hills Corporation ,Edena Gilbert; 1618 Greenland Street              ,Talahassee,FL,32304,6,Paper Supplies         ,B        ,Disposable Supplies ,Supplies,TPCW,0
26,Subclasses Polishing Equipment,282.5,239,236.6,Saurer Gruppe Holding Ag,Pearce Valdez; 3727 Elms Drive                    ,South Saint Paul,MN,55077,3,Polishing Equipment    ,A        ,Processing Equipment,Equipment,TPCE,0
26,Subclasses Polishing Equipment,282.5,239,236.6,Saurer Gruppe Holding Ag,Pearce Valdez; 3737 Elms Drive                    ,South Saint Paul,MN,55077,3,Polishing Equipment    ,A        ,Processing Equipment,Equipment,TPCW,0
40,Subclasses Polishing Equipment,282.5,239,210,N/A,N/A                                               ,N/A,N/A,N/A,3,Polishing Equipment    ,A        ,Processing Equipment,Equipment,PEC,0
62,Substances Flushing Chemicals,507.3,409.9,397.6,Black Hills Corporation,Edena Gilbert; 1618 Greenland Street              ,Tallahassee,FL,32304,10,Flushing Chemicals     ,C        ,Chemicals           ,Chemicals,TPCE,0
62,Substances Flushing Chemicals,507.3,409.9,397.6,Black Hills Corporation ,Edena Gilbert; 1618 Greenland Street              ,Tallahassee,FL,32304,10,Flushing Chemicals     ,C        ,Chemicals           ,Chemicals,TPCW,0
87,Suing Manufacturing Equipment,482.2,426.7,401.1,First Bancshares Incoporated.,Jensine Lease; 11885 Aural Turnpike               ,Louisville,KY,40253,2,Manufacturing Equip    ,A        ,Processing Equipment,Equipment,TPCE,0
87,Suing Manufacturing Equipment,482.2,426.7,401.1,First Bancshares Incoporated.,Jensine Lease; 11885 Aural Turnpike               ,Louisville,KY,40253,2,Manufacturing Equip    ,A        ,Processing Equipment,Equipment,TPCW,0
30,Suing Manufacturing Equipment,482.2,426.7,329,N/A,N/A                                               ,N/A,N/A,N/A,2,Manufacturing Equip    ,A        ,Processing Equipment,Equipment,PEC,0
11,Sulkiness Covers,354.3,289.8,272.4,Dollar General Corporation,Antoinette Hickey; 3988 Chanced Avenue            ,S Middleton,PA,17007,13,Covers                 ,D        ,Miscellaneous       ,Misc,TPCE,0
11,Sulkiness Covers,354.3,289.8,272.4,Dollar General Corporation ,Antoinette Hickey; 3988 Chanced Avenue            ,S Middleton,PA,17007,13,Covers                 ,D        ,Miscellaneous       ,Misc,TPCW,0
41,Sulkiness Covers,354.3,289.8,272.4,The Product Company (East),20021 Barnes Rd.                                  ,Stratford,NY,13470,13,Covers                 ,D        ,Miscellaneous       ,Misc,PEC,0
38,Syntax Polishing Equipment,226.7,190.9,177.5,Dollar General Corporation,Antoinette Hickey; 3988 Chanced Avenue            ,S Middleton,PA,17007,3,Polishing Equipment    ,A        ,Processing Equipment,Equipment,TPCE,0
38,Syntax Polishing Equipment,226.7,190.9,177.5,Dollar General Corporation ,Antoinette Hickey; 3988 Chanced Avenue            ,S Middleton,PA,17007,3,Polishing Equipment    ,A        ,Processing Equipment,Equipment,TPCW,0
15,Syntax Polishing Equipment,226.7,190.9,123,N/A,N/A                                               ,N/A,N/A,N/A,3,Polishing Equipment    ,A        ,Processing Equipment,Equipment,PEC,0
2,Tailor Jacks,509.8,429.7,399.7,Black Hills Corporation,Edena Gilbert; 1618 Greenland Street              ,Tallahassee,FL,32304,15,Jacks                  ,D        ,Miscellaneous       ,Misc,TPCE,0
2,Tailor Jacks,509.8,429.7,399.7,Black Hills Corporation ,Edena Gilbert; 1618 Greenland Street              ,Tallahassee,FL,32304,15,Jacks                  ,D        ,Miscellaneous       ,Misc,TPCW,0
3,Tailor Jacks,509.8,429.7,399.7,The Product Company (West),21 E Bullard Ave                                  ,Fresno,CA,93710,15,Jacks                  ,D        ,Miscellaneous       ,Misc,PEC,0
80,Temporally Plastic Supplies,477.5,408.3,371.5,Fedders Corporation,Virgil Hubert; 7844 Carelessly Drive              ,Overlook,WA,98366,7,Plastic Supplies       ,B        ,Disposable Supplies ,Supplies,TPCE,0
80,Temporally Plastic Supplies,477.5,408.3,371.5,Fedders Corporation ,Virgil Hubert; 7844 Carelessly Drive              ,Overlook,WA,98366,7,Plastic Supplies       ,B        ,Disposable Supplies ,Supplies,TPCW,0
59,Tonnage Plastic Supplies,368.8,315.6,309.3,Afg Industries Incoporated.,Dorothy Polk; 5377 Cookbook Circle                ,Vero Beach,FL,32967,7,Plastic Supplies       ,B        ,Disposable Supplies ,Supplies,TPCE,0
59,Tonnage Plastic Supplies,368.8,315.6,309.3,Afg Industries Incoporated.,Dorothy Polk; 5377 Cookbook Circle                ,Vero Beach,FL,32967,7,Plastic Supplies       ,B        ,Disposable Supplies ,Supplies,TPCW,0
89,Travel Paper Supplies,129.8,108.8,103.4,Saurer Gruppe Holding Ag,Pearce Valdez; 3727 Elms Drive                    ,South Saint Paul,MN,55077,6,Paper Supplies         ,B        ,Disposable Supplies ,Supplies,TPCE,0
89,Travel Paper Supplies,129.8,108.8,103.4,Saurer Gruppe Holding Ag,Pearce Valdez; 3727 Elms Drive                    ,South Saint Paul,MN,55077,6,Paper Supplies         ,B        ,Disposable Supplies ,Supplies,TPCW,0
12,Travelings Photo Chemicals,274.4,242,225.1,American General Ventures Incoporated.,Kimberly Yarborough; 1616 Goggles Drive           ,Sterling,KS,67579,9,Photo Chemicals        ,C        ,Chemicals           ,Chemicals,TPCE,0
12,Travelings Photo Chemicals,274.4,242,225.1,American General Ventures Incoporated.,Kimberly Yarborough; 1616 Goggles Drive           ,Sterling,KS,67579,9,Photo Chemicals        ,C        ,Chemicals           ,Chemicals,TPCW,0
14,Travelings Photo Chemicals,274.4,242,225.1,The Product Company (West),21 E Bullard Ave                                  ,Fresno,CA,93710,9,Photo Chemicals        ,C        ,Chemicals           ,Chemicals,PEC,0
84,Unjust Paper Supplies,222.5,182.2,176.7,Afg Industries Incoporated.,Dorothy Polk; 5377 Cookbook Circle                ,Vero Beach,FL,32967,6,Paper Supplies         ,B        ,Disposable Supplies ,Supplies,TPCE,0
84,Unjust Paper Supplies,222.5,182.2,176.7,Afg Industries Incoporated.,Dorothy Polk; 5377 Cookbook Circle                ,Vero Beach,FL,32967,6,Paper Supplies         ,B        ,Disposable Supplies ,Supplies,TPCW,0
77,Vastest Photo Equipment,498.1,442.3,420.2,Sinclair Broadcast Group Incoporated.,Carla Shelby; 6037 Ecuadorian Street              ,Clinton,MI,49236,1,Photo Equipment        ,A        ,Processing Equipment,Equipment,TPCE,0
77,Vastest Photo Equipment,498.1,442.3,420.2,SIncoporated.,Carla Shelby; 6037 Ecuadorian Street              ,Clinton,MI,49236,1,Photo Equipment        ,A        ,Processing Equipment,Equipment,TPCW,0
27,Vastest Photo Equipment,498.1,442.3,294,N/A,N/A                                               ,N/A,N/A,N/A,1,Photo Equipment        ,A        ,Processing Equipment,Equipment,PEC,0
88,Vestiges Tray Supplies,231.4,192.1,186.3,Saurer Gruppe Holding Ag,Pearce Valdez; 3727 Elms Drive                    ,South Saint Paul,MN,55077,8,Tray Supplies          ,B        ,Disposable Supplies ,Supplies,TPCE,0
88,Vestiges Tray Supplies,231.4,192.1,186.3,Saurer Gruppe Holding Ag,Pearce Valdez; 3727 Elms Drive                    ,South Saint Paul,Mn,55077,8,Tray Supplies          ,B        ,Disposable Supplies ,Supplies,TPCW,0
49,Visage Flushing Chemicals,567.8,507.6,467,Afg Industries Incoporated.,Dorothy Polk; 5377 Cookbook Circle                ,Vero Beach,FL,32967,10,Flushing Chemicals     ,C        ,Chemicals           ,Chemicals,TPCE,0
49,Visage Flushing Chemicals,567.8,507.6,467,Afg Industries Incoporated.,Dorothy Polk; 5377 Cookbook Circle                ,Vero Beach,FL,32967,10,Flushing Chemicals     ,C        ,Chemicals           ,Chemicals,TPCW,0
63,Weeks Polishing Equipment,198.8,174.2,168.9,Afg Industries Incoporated.,Dorothy Polk; 5377 Cookbook Circle                ,Vero Beach,FL,32967,3,Polishing Equipment    ,A        ,Processing Equipment,Equipment,TPCE,0
63,Weeks Polishing Equipment,198.8,174.2,168.9,Afg Industries Incoporated.,Dorothy Polk; 5377 Cookbook Circle                ,Vero Beach,FL,32967,3,Polishing Equipment    ,A        ,Processing Equipment,Equipment,TPCW,0
21,Weeks Polishing Equipment,198.8,174.2,151,N/A,N/A                                               ,N/A,N/A,N/A,3,Polishing Equipment    ,A        ,Processing Equipment,Equipment,PEC,0
103,Whale Lifts,493.4,406.8,385.4,Saurer Gruppe Holding Ag,Pearce Valdez; 3727 Elms Drive                    ,South Saint Paul,MN,55077,14,Lifts                  ,D        ,Miscellaneous       ,Misc,TPCW,0
22,Whippers Covers,488.6,410.4,389.9,Specialty Teleconstructors Incoporated.,Zylina Cox; 2161 Chalmers Street                  ,Salinas,CA,93905,13,Covers                 ,D        ,Miscellaneous       ,Misc,TPCE,0
22,Whippers Covers,488.6,410.4,389.9,Specialty Teleconstructors Incoporated.,Zylina Cox; 2161 Chalmers Street                  ,Salinas,CA,93905,13,Covers                 ,D        ,Miscellaneous       ,Misc,TPCW,0
28,Wonderingly Covers,547.2,467.3,453.3,Afg Industries Incoporated.,Dorothy Polk; 5377 Cookbook Circle                ,Vero Beach,FL,32967,13,Covers                 ,D        ,Miscellaneous       ,Misc,TPCE,0
28,Wonderingly Covers,547.2,467.3,453.3,Afg Industries Incoporated.,Dorothy Polk; 5377 Cookbook Circle                ,Vero Beach,FL,32967,13,Covers                 ,D        ,Miscellaneous       ,Misc,TPCW,0
